{
  "type": "FeatureCollection",
  "features": [
    {
      "type": "Feature",
      "properties": {
        "name": "西安市",
        "区县": "全市"
      },
      "geometry": {
        "type": "Polygon",
        "coordinates": [
          [
            [
              107.9277047,
              33.684314
            ],
            [
              109.0999791,
              33.684314
            ],
            [
              109.0999791,
              34.594153150000004
            ],
            [
              107.9277047,
              34.594153150000004
            ],
            [
              107.9277047,
              33.684314
            ]
          ]
        ]
      }
    }
  ]
}