{
  "type": "FeatureCollection",
  "features": [
    {
      "type": "Feature",
      "properties": {"名称": "新城区"},
      "geometry": {"type": "Polygon", "coordinates": [[[108.97, 34.28], [109.05, 34.28], [109.05, 34.22], [108.97, 34.22], [108.97, 34.28]]]}
    },
    {
      "type": "Feature",
      "properties": {"名称": "碑林区"},
      "geometry": {"type": "Polygon", "coordinates": [[[108.93, 34.26], [109.00, 34.26], [109.00, 34.20], [108.93, 34.20], [108.93, 34.26]]]}
    },
    {
      "type": "Feature",
      "properties": {"名称": "莲湖区"},
      "geometry": {"type": "Polygon", "coordinates": [[[108.88, 34.28], [108.98, 34.28], [108.98, 34.20], [108.88, 34.20], [108.88, 34.28]]]}
    },
    {
      "type": "Feature",
      "properties": {"名称": "雁塔区"},
      "geometry": {"type": "Polygon", "coordinates": [[[108.80, 34.25], [109.05, 34.25], [109.05, 34.10], [108.80, 34.10], [108.80, 34.25]]]}
    },
    {
      "type": "Feature",
      "properties": {"名称": "未央区"},
      "geometry": {"type": "Polygon", "coordinates": [[[108.88, 34.35], [109.12, 34.35], [109.12, 34.24], [108.88, 34.24], [108.88, 34.35]]]}
    },
    {
      "type": "Feature",
      "properties": {"名称": "灞桥区"},
      "geometry": {"type": "Polygon", "coordinates": [[[109.02, 34.32], [109.30, 34.32], [109.30, 34.18], [109.02, 34.18], [109.02, 34.32]]]}
    },
    {
      "type": "Feature",
      "properties": {"名称": "阎良区"},
      "geometry": {"type": "Polygon", "coordinates": [[[109.20, 34.65], [109.45, 34.65], [109.45, 34.52], [109.20, 34.52], [109.20, 34.65]]]}
    },
    {
      "type": "Feature",
      "properties": {"名称": "临潼区"},
      "geometry": {"type": "Polygon", "coordinates": [[[109.05, 34.50], [109.40, 34.50], [109.40, 34.28], [109.05, 34.28], [109.05, 34.50]]]}
    },
    {
      "type": "Feature",
      "properties": {"名称": "长安区"},
      "geometry": {"type": "Polygon", "coordinates": [[[108.72, 34.22], [109.15, 34.22], [109.15, 33.88], [108.72, 33.88], [108.72, 34.22]]]}
    },
    {
      "type": "Feature",
      "properties": {"名称": "高陵区"},
      "geometry": {"type": "Polygon", "coordinates": [[[108.95, 34.55], [109.20, 34.55], [109.20, 34.38], [108.95, 34.38], [108.95, 34.55]]]}
    },
    {
      "type": "Feature",
      "properties": {"名称": "鄠邑区"},
      "geometry": {"type": "Polygon", "coordinates": [[[108.45, 34.12], [108.80, 34.12], [108.80, 33.78], [108.45, 33.78], [108.45, 34.12]]]}
    },
    {
      "type": "Feature",
      "properties": {"名称": "蓝田县"},
      "geometry": {"type": "Polygon", "coordinates": [[[109.15, 34.20], [109.55, 34.20], [109.55, 33.75], [109.15, 33.75], [109.15, 34.20]]]}
    },
    {
      "type": "Feature",
      "properties": {"名称": "周至县"},
      "geometry": {"type": "Polygon", "coordinates": [[[107.95, 34.18], [108.55, 34.18], [108.55, 33.65], [107.95, 33.65], [107.95, 34.18]]]}
    }
  ]
}